GLOBALSTAR M075 [+]     
1 37192U 10054E   23231.98221854 -.00000096  00000+0  41971-4 0  9993
2 37192  51.9953  53.0287 0000601  79.7025  86.0747 12.62260429592112
GLOBALSTAR M073 [+]     
1 37193U 10054F   23231.74403458 -.00000079  00000+0  13808-3 0  9998
2 37193  52.0079 327.0676 0000630 108.6651  53.6550 12.62266478593594
GLOBALSTAR M083 [+]     
1 37739U 11033A   23231.17577870 -.00000088  00000+0  87596-4 0  9995
2 37739  51.9846 278.4414 0000571 143.4303 256.2290 12.62268788562857
GLOBALSTAR M088 [+]     
1 37740U 11033B   23231.33535204 -.00000103  00000+0  29888-5 0  9999
2 37740  51.9717 184.0058 0000004 252.3759 272.5866 12.62264819558348
GLOBALSTAR M091 [+]     
1 37741U 11033C   23232.13509788 -.00000078  00000+0  14621-3 0  9995
2 37741  51.9992 143.9326 0000186  55.6452  84.6938 12.62265609559207
GLOBALSTAR M085 [+]     
1 37742U 11033D   23231.09760823 -.00000079  00000+0  13858-3 0  9991
2 37742  51.9864  98.7204 0000533  79.5464  84.8009 12.62266495559814
GLOBALSTAR M081 [+]     
1 37743U 11033E   23232.14896233 -.00000074  00000+0  16691-3 0  9997
2 37743  51.9955  97.8950 0000437  49.3164  94.2556 12.62270344559987
GLOBALSTAR M089 [+]     
1 37744U 11033F   23230.81388199 -.00000098  00000+0  33779-4 0  9990
2 37744  51.9935  56.3126 0000865  63.7020 310.0250 12.62266256560537
